[{"OBJECT_NAME":"STARLINK-5734","OBJECT_ID":"2023-020AV","EPOCH":"2026-03-09T02:54:07.991712","MEAN_MOTION":15.02534125,"ECCENTRICITY":0.00011838,"INCLINATION":43.0053,"RA_OF_ASC_NODE":354.7649,"ARG_OF_PERICENTER":266.0726,"MEAN_ANOMALY":93.9981,"EPHEMERIS_TYPE":0,"CLASSIFICATION_TYPE":"U","NORAD_CAT_ID":55612,"ELEMENT_SET_NO":999,"REV_AT_EPOCH":16898,"BSTAR":-1.9338209e-5,"MEAN_MOTION_DOT":-4.65e-6,"MEAN_MOTION_DDOT":0},{"OBJECT_NAME":"NAXING 1","OBJECT_ID":"2004-012B","EPOCH":"2026-03-09T22:31:20.183520","MEAN_MOTION":15.05443462,"ECCENTRICITY":0.00121665,"INCLINATION":98.0152,"RA_OF_ASC_NODE":92.9199,"ARG_OF_PERICENTER":69.4128,"MEAN_ANOMALY":290.8402,"EPHEMERIS_TYPE":0,"CLASSIFICATION_TYPE":"U","NORAD_CAT_ID":28221,"ELEMENT_SET_NO":999,"REV_AT_EPOCH":19231,"BSTAR":0.00025838798,"MEAN_MOTION_DOT":3.649e-5,"MEAN_MOTION_DDOT":0}]
